{"type": "FeatureCollection", "features": [ {"type": "Feature", "properties": {"norad_id": 66623, "name": "STARLINK-35920", "group": "last-30-days", "lat": -13.740991194675516, "lon": -20.371140321676943, "alt_km": 450.0071388847555, "timestamp": "2025-12-20T18:51:30.445290+00:00", "meta": {"OBJECT_NAME": "STARLINK-35920", "OBJECT_ID": "2025-271G", "EPOCH": "2025-12-20T00:00:02.000160", "MEAN_MOTION": 15.39609547, "ECCENTRICITY": 0.0001114, "INCLINATION": 53.1601, "RA_OF_ASC_NODE": 152.7686, "ARG_OF_PERICENTER": 79.6665, "MEAN_ANOMALY": 79.9296, "EPHEMERIS_TYPE": 0, "CLASSIFICATION_TYPE": "U", "NORAD_CAT_ID": 66623, "ELEMENT_SET_NO": 999, "REV_AT_EPOCH": 541, "BSTAR": 0.00041204, "MEAN_MOTION_DOT": 0.00016111, "MEAN_MOTION_DDOT": 0}, "tle": {"line1": "1 66623U 25271G   25354.00002315  .00016111  00000+0  41204-3 0  9993", "line2": "2 66623  53.1601 152.7686 0001114  79.6665  79.9296 15.39609547  5413"}}, "geometry": {"type": "Point", "coordinates": [-20.371140321676943, -13.740991194675516]}}, {"type": "Feature", "properties": {"norad_id": 66624, "name": "STARLINK-35927", "group": "last-30-days", "lat": -9.134002346101974, "lon": 141.84128441950347, "alt_km": 431.2596190631921, "timestamp": "2025-12-20T18:51:30.445300+00:00", "meta": {"OBJECT_NAME": "STARLINK-35927", "OBJECT_ID": "2025-271H", "EPOCH": "2025-12-19T22:44:25.582848", "MEAN_MOTION": 15.46532201, "ECCENTRICITY": 8.49e-05, "INCLINATION": 53.159, "RA_OF_ASC_NODE": 152.7553, "ARG_OF_PERICENTER": 106.2501, "MEAN_ANOMALY": 253.86, "EPHEMERIS_TYPE": 0, "CLASSIFICATION_TYPE": "U", "NORAD_CAT_ID": 66624, "ELEMENT_SET_NO": 999, "REV_AT_EPOCH": 532, "BSTAR": -0.0084107, "MEAN_MOTION_DOT": -0.00403682, "MEAN_MOTION_DDOT": 0}, "tle": {"line1": "1 66624U 25271H   25353.94751832 -.00403682  00000+0 -84107-2 0  9994", "line2": "2 66624  53.1590 152.7553 0000849 106.2501 253.8600 15.46532201  5326"}}, "geometry": {"type": "Point", "coordinates": [141.84128441950347, -9.134002346101974]}}, {"type": "Feature", "properties": {"norad_id": 66625, "name": "STARLINK-35929", "group": "last-30-days", "lat": -43.796221464622896, "lon": 102.89937666629899, "alt_km": 452.2664636908694, "timestamp": "2025-12-20T18:51:30.445310+00:00", "meta": {"OBJECT_NAME": "STARLINK-35929", "OBJECT_ID": "2025-271J", "EPOCH": "2025-12-20T14:00:03.000384", "MEAN_MOTION": 15.39622061, "ECCENTRICITY": 8.347e-05, "INCLINATION": 53.1592, "RA_OF_ASC_NODE": 149.8153, "ARG_OF_PERICENTER": 90.6621, "MEAN_ANOMALY": 167.0448, "EPHEMERIS_TYPE": 0, "CLASSIFICATION_TYPE": "U", "NORAD_CAT_ID": 66625, "ELEMENT_SET_NO": 999, "REV_AT_EPOCH": 550, "BSTAR": -8.5914093e-05, "MEAN_MOTION_DOT": -3.834e-05, "MEAN_MOTION_DDOT": 0}, "tle": {"line1": "1 66625U 25271J   25354.58336806 -.00003834  00000+0 -85914-4 0  9990", "line2": "2 66625  53.1592 149.8153 0000834  90.6621 167.0448 15.39622061  5507"}}, "geometry": {"type": "Point", "coordinates": [102.89937666629899, -43.796221464622896]}}, {"type": "Feature", "properties": {"norad_id": 66626, "name": "STARLINK-35902", "group": "last-30-days", "lat": -33.07427953302972, "lon": -1.7592831733861083, "alt_km": 451.9286585178552, "timestamp": "2025-12-20T18:51:30.445324+00:00", "meta": {"OBJECT_NAME": "STARLINK-35902", "OBJECT_ID": "2025-271K", "EPOCH": "2025-12-20T14:00:03.000384", "MEAN_MOTION": 15.39629221, "ECCENTRICITY": 0.00013489, "INCLINATION": 53.1601, "RA_OF_ASC_NODE": 149.9689, "ARG_OF_PERICENTER": 84.0566, "MEAN_ANOMALY": 96.3881, "EPHEMERIS_TYPE": 0, "CLASSIFICATION_TYPE": "U", "NORAD_CAT_ID": 66626, "ELEMENT_SET_NO": 999, "REV_AT_EPOCH": 550, "BSTAR": -0.00023842035, "MEAN_MOTION_DOT": -9.926e-05, "MEAN_MOTION_DDOT": 0}, "tle": {"line1": "1 66626U 25271K   25354.58336806 -.00009926  00000+0 -23842-3 0  9990", "line2": "2 66626  53.1601 149.9689 0001348  84.0566  96.3881 15.39629221  5500"}}, "geometry": {"type": "Point", "coordinates": [-1.7592831733861083, -33.07427953302972]}}, {"type": "Feature", "properties": {"norad_id": 66627, "name": "STARLINK-35904", "group": "last-30-days", "lat": -52.9146655880582, "lon": 66.22833099829116, "alt_km": 452.7204746268462, "timestamp": "2025-12-20T18:51:30.445348+00:00", "meta": {"OBJECT_NAME": "STARLINK-35904", "OBJECT_ID": "2025-271L", "EPOCH": "2025-12-20T14:00:03.000384", "MEAN_MOTION": 15.39629382, "ECCENTRICITY": 0.00010131, "INCLINATION": 53.1592, "RA_OF_ASC_NODE": 149.8664, "ARG_OF_PERICENTER": 86.7536, "MEAN_ANOMALY": 145.1873, "EPHEMERIS_TYPE": 0, "CLASSIFICATION_TYPE": "U", "NORAD_CAT_ID": 66627, "ELEMENT_SET_NO": 999, "REV_AT_EPOCH": 534, "BSTAR": -0.00017876551, "MEAN_MOTION_DOT": -7.545e-05, "MEAN_MOTION_DDOT": 0}, "tle": {"line1": "1 66627U 25271L   25354.58336806 -.00007545  00000+0 -17877-3 0  9997", "line2": "2 66627  53.1592 149.8664 0001013  86.7536 145.1873 15.39629382  5341"}}, "geometry": {"type": "Point", "coordinates": [66.22833099829116, -52.9146655880582]}}, {"type": "Feature", "properties": {"norad_id": 66628, "name": "STARLINK-35862", "group": "last-30-days", "lat": -1.4484350331920575, "lon": 147.65742817405942, "alt_km": 429.2748795769039, "timestamp": "2025-12-20T18:51:30.445360+00:00", "meta": {"OBJECT_NAME": "STARLINK-35862", "OBJECT_ID": "2025-271M", "EPOCH": "2025-12-19T22:41:57.757632", "MEAN_MOTION": 15.46540943, "ECCENTRICITY": 0.0002224, "INCLINATION": 53.1592, "RA_OF_ASC_NODE": 152.7424, "ARG_OF_PERICENTER": 62.1747, "MEAN_ANOMALY": 297.9486, "EPHEMERIS_TYPE": 0, "CLASSIFICATION_TYPE": "U", "NORAD_CAT_ID": 66628, "ELEMENT_SET_NO": 999, "REV_AT_EPOCH": 532, "BSTAR": -0.0077533, "MEAN_MOTION_DOT": -0.00373781, "MEAN_MOTION_DDOT": 0}, "tle": {"line1": "1 66628U 25271M   25353.94580738 -.00373781  00000+0 -77533-2 0  9994", "line2": "2 66628  53.1592 152.7424 0002224  62.1747 297.9486 15.46540943  5323"}}, "geometry": {"type": "Point", "coordinates": [147.65742817405942, -1.4484350331920575]}}, {"type": "Feature", "properties": {"norad_id": 66629, "name": "STARLINK-35956", "group": "last-30-days", "lat": 12.362044459207873, "lon": 158.16567131430568, "alt_km": 417.08538187497743, "timestamp": "2025-12-20T18:51:30.445375+00:00", "meta": {"OBJECT_NAME": "STARLINK-35956", "OBJECT_ID": "2025-271N", "EPOCH": "2025-12-18T16:00:00.999936", "MEAN_MOTION": 15.49463337, "ECCENTRICITY": 5.424e-05, "INCLINATION": 53.1591, "RA_OF_ASC_NODE": 158.846, "ARG_OF_PERICENTER": 63.7637, "MEAN_ANOMALY": 4.4961, "EPHEMERIS_TYPE": 0, "CLASSIFICATION_TYPE": "U", "NORAD_CAT_ID": 66629, "ELEMENT_SET_NO": 999, "REV_AT_EPOCH": 519, "BSTAR": 0.0002238515, "MEAN_MOTION_DOT": 0.00012088, "MEAN_MOTION_DDOT": 0}, "tle": {"line1": "1 66629U 25271N   25352.66667824  .00012088  00000+0  22385-3 0  9999", "line2": "2 66629  53.1591 158.8460 0000542  63.7637   4.4961 15.49463337  5194"}}, "geometry": {"type": "Point", "coordinates": [158.16567131430568, 12.362044459207873]}}, {"type": "Feature", "properties": {"norad_id": 66630, "name": "STARLINK-35949", "group": "last-30-days", "lat": 2.7682485337578115, "lon": 150.80940262863004, "alt_km": 426.3604997556977, "timestamp": "2025-12-20T18:51:30.445385+00:00", "meta": {"OBJECT_NAME": "STARLINK-35949", "OBJECT_ID": "2025-271P", "EPOCH": "2025-12-19T21:07:53.060736", "MEAN_MOTION": 15.46903837, "ECCENTRICITY": 0.0003221, "INCLINATION": 53.1593, "RA_OF_ASC_NODE": 153.0444, "ARG_OF_PERICENTER": 47.5604, "MEAN_ANOMALY": 312.5676, "EPHEMERIS_TYPE": 0, "CLASSIFICATION_TYPE": "U", "NORAD_CAT_ID": 66630, "ELEMENT_SET_NO": 999, "REV_AT_EPOCH": 531, "BSTAR": -0.005658, "MEAN_MOTION_DOT": -0.002797, "MEAN_MOTION_DDOT": 0}, "tle": {"line1": "1 66630U 25271P   25353.88047524 -.00279700  00000+0 -56580-2 0  9996", "line2": "2 66630  53.1593 153.0444 0003221  47.5604 312.5676 15.46903837  5319"}}, "geometry": {"type": "Point", "coordinates": [150.80940262863004, 2.7682485337578115]}}, {"type": "Feature", "properties": {"norad_id": 66631, "name": "STARLINK-35965", "group": "last-30-days", "lat": 1.811383002137525, "lon": 150.09493829935673, "alt_km": 429.96881658282473, "timestamp": "2025-12-20T18:51:30.445395+00:00", "meta": {"OBJECT_NAME": "STARLINK-35965", "OBJECT_ID": "2025-271Q", "EPOCH": "2025-12-20T14:00:03.000384", "MEAN_MOTION": 15.45556485, "ECCENTRICITY": 0.00013127, "INCLINATION": 53.1596, "RA_OF_ASC_NODE": 149.6989, "ARG_OF_PERICENTER": 62.2809, "MEAN_ANOMALY": 253.2982, "EPHEMERIS_TYPE": 0, "CLASSIFICATION_TYPE": "U", "NORAD_CAT_ID": 66631, "ELEMENT_SET_NO": 999, "REV_AT_EPOCH": 550, "BSTAR": 2.6034622e-05, "MEAN_MOTION_DOT": 8.43e-06, "MEAN_MOTION_DDOT": 0}, "tle": {"line1": "1 66631U 25271Q   25354.58336806  .00000843  00000+0  26035-4 0  9991", "line2": "2 66631  53.1596 149.6989 0001312  62.2809 253.2982 15.45556485  5502"}}, "geometry": {"type": "Point", "coordinates": [150.09493829935673, 1.811383002137525]}}, {"type": "Feature", "properties": {"norad_id": 66632, "name": "STARLINK-35973", "group": "last-30-days", "lat": 6.617386123087117, "lon": -35.87614916177666, "alt_km": 447.0185433394472, "timestamp": "2025-12-20T18:51:30.445407+00:00", "meta": {"OBJECT_NAME": "STARLINK-35973", "OBJECT_ID": "2025-271R", "EPOCH": "2025-12-19T18:44:52.278432", "MEAN_MOTION": 15.39637359, "ECCENTRICITY": 9.834e-05, "INCLINATION": 53.1599, "RA_OF_ASC_NODE": 153.8489, "ARG_OF_PERICENTER": 75.4861, "MEAN_ANOMALY": 284.6253, "EPHEMERIS_TYPE": 0, "CLASSIFICATION_TYPE": "U", "NORAD_CAT_ID": 66632, "ELEMENT_SET_NO": 999, "REV_AT_EPOCH": 525, "BSTAR": 0.00082132207, "MEAN_MOTION_DOT": 0.00032612, "MEAN_MOTION_DDOT": 0}, "tle": {"line1": "1 66632U 25271R   25353.78116063  .00032612  00000+0  82132-3 0  9992", "line2": "2 66632  53.1599 153.8489 0000983  75.4861 284.6253 15.39637359  5259"}}, "geometry": {"type": "Point", "coordinates": [-35.87614916177666, 6.617386123087117]}}]}